$$SOE
2460742.500000000, A.D. 2025-Mar-08 00:00:00.0000, 5.994830954276237E+09, 9.670877490059628E+08, 8.294841056084950E+08,
2460749.500000000, A.D. 2025-Mar-15 00:00:00.0000, 5.994550340116795E+09, 9.699599460457346E+08, 8.288979908242178E+08,
2460756.500000000, A.D. 2025-Mar-22 00:00:00.0000, 5.994268463857172E+09, 9.728318550776145E+08, 8.283117004519945E+08,
2460763.500000000, A.D. 2025-Mar-29 00:00:00.0000, 5.993985326841238E+09, 9.757034799559681E+08, 8.277252347404279E+08,
2460770.500000000, A.D. 2025-Apr-05 00:00:00.0000, 5.993700929214936E+09, 9.785748238973206E+08, 8.271385939744807E+08,
2460777.500000000, A.D. 2025-Apr-12 00:00:00.0000, 5.993415270528417E+09, 9.814458895198672E+08, 8.265517784306222E+08,
2460784.500000000, A.D. 2025-Apr-19 00:00:00.0000, 5.993128349919582E+09, 9.843166789898320E+08, 8.259647883792593E+08,
2460791.500000000, A.D. 2025-Apr-26 00:00:00.0000, 5.992840166150731E+09, 9.871871940719903E+08, 8.253776240926853E+08,
2460798.500000000, A.D. 2025-May-03 00:00:00.0000, 5.992550717611948E+09, 9.900574361039013E+08, 8.247902858494601E+08,
2460805.500000000, A.D. 2025-May-10 00:00:00.0000, 5.992260002319856E+09, 9.929274059028758E+08, 8.242027739331313E+08,
2460812.500000000, A.D. 2025-May-17 00:00:00.0000, 5.991968017948444E+09, 9.957971035649645E+08, 8.236150886184328E+08,
2460819.500000000, A.D. 2025-May-24 00:00:00.0000, 5.991674762065910E+09, 9.986665281017879E+08, 8.230272301244758E+08,
2460826.500000000, A.D. 2025-May-31 00:00:00.0000, 5.991380232995273E+09, 1.001535677226436E+09, 8.224391985219692E+08,
2460833.500000000, A.D. 2025-Jun-07 00:00:00.0000, 5.991084430897810E+09, 1.004404548493448E+09, 8.218509937296808E+08,
2460840.500000000, A.D. 2025-Jun-14 00:00:00.0000, 5.990787356714808E+09, 1.007273141126230E+09, 8.212626157625300E+08,
2460847.500000000, A.D. 2025-Jun-21 00:00:00.0000, 5.990489010184332E+09, 1.010141455260722E+09, 8.206740648523853E+08,
2460854.500000000, A.D. 2025-Jun-28 00:00:00.0000, 5.990189390061269E+09, 1.013009490370177E+09, 8.200853412988920E+08,
2460861.500000000, A.D. 2025-Jul-05 00:00:00.0000, 5.989888495023867E+09, 1.015877245027678E+09, 8.194964453657284E+08,
2460868.500000000, A.D. 2025-Jul-12 00:00:00.0000, 5.989586324075834E+09, 1.018744717201207E+09, 8.189073772657624E+08,
2460875.500000000, A.D. 2025-Jul-19 00:00:00.0000, 5.989282876633504E+09, 1.021611904506338E+09, 8.183181371708050E+08,
2460882.500000000, A.D. 2025-Jul-26 00:00:00.0000, 5.988978152508040E+09, 1.024478804360150E+09, 8.177287252221575E+08,
2460889.500000000, A.D. 2025-Aug-02 00:00:00.0000, 5.988672151848054E+09, 1.027345414058147E+09, 8.171391415378420E+08,
2460896.500000000, A.D. 2025-Aug-09 00:00:00.0000, 5.988364875066057E+09, 1.030211730759804E+09, 8.165493862133110E+08,
2460903.500000000, A.D. 2025-Aug-16 00:00:00.0000, 5.988056322825671E+09, 1.033077751319764E+09, 8.159594593035825E+08,
2460910.500000000, A.D. 2025-Aug-23 00:00:00.0000, 5.987746496382258E+09, 1.035943471981452E+09, 8.153693607615249E+08,
2460917.500000000, A.D. 2025-Aug-30 00:00:00.0000, 5.987435398605879E+09, 1.038808888647397E+09, 8.147790903607005E+08,
2460924.500000000, A.D. 2025-Sep-06 00:00:00.0000, 5.987123034268449E+09, 1.041673998726701E+09, 8.141886478148348E+08,
2460931.500000000, A.D. 2025-Sep-13 00:00:00.0000, 5.986809407924369E+09, 1.044538802076963E+09, 8.135980330445061E+08,
2460938.500000000, A.D. 2025-Sep-20 00:00:00.0000, 5.986494522657820E+09, 1.047403299396361E+09, 8.130072461566892E+08,
2460945.500000000, A.D. 2025-Sep-27 00:00:00.0000, 5.986178380755313E+09, 1.050267491177649E+09, 8.124162872945722E+08,
2460952.500000000, A.D. 2025-Oct-04 00:00:00.0000, 5.985860984286759E+09, 1.053131377763443E+09, 8.118251565868553E+08,
2460959.500000000, A.D. 2025-Oct-11 00:00:00.0000, 5.985542335221440E+09, 1.055994959560006E+09, 8.112338541538459E+08,
2460966.500000000, A.D. 2025-Oct-18 00:00:00.0000, 5.985222435362531E+09, 1.058858237135371E+09, 8.106423801219475E+08,
2460973.500000000, A.D. 2025-Oct-25 00:00:00.0000, 5.984901286239696E+09, 1.061721211213127E+09, 8.100507346346103E+08,
2460980.500000000, A.D. 2025-Nov-01 00:00:00.0000, 5.984578888999192E+09, 1.064583882577772E+09, 8.094589178572891E+08,
2460987.500000000, A.D. 2025-Nov-08 00:00:00.0000, 5.984255244325945E+09, 1.067446251860667E+09, 8.088669299705179E+08,
2460994.500000000, A.D. 2025-Nov-15 00:00:00.0000, 5.983930352545467E+09, 1.070308319148506E+09, 8.082747711325586E+08,
2461001.500000000, A.D. 2025-Nov-22 00:00:00.0000, 5.983604214308178E+09, 1.073170083634853E+09, 8.076824413924588E+08,
2461008.500000000, A.D. 2025-Nov-29 00:00:00.0000, 5.983276831702929E+09, 1.076031544450197E+09, 8.070899406601148E+08,
2461015.500000000, A.D. 2025-Dec-06 00:00:00.0000, 5.982948207522220E+09, 1.078892702534885E+09, 8.064972689309082E+08,
2461022.500000000, A.D. 2025-Dec-13 00:00:00.0000, 5.982618343112738E+09, 1.081753560184975E+09, 8.059044264495482E+08,
2461029.500000000, A.D. 2025-Dec-20 00:00:00.0000, 5.982287238304348E+09, 1.084614119294521E+09, 8.053114135762208E+08,
2461036.500000000, A.D. 2025-Dec-27 00:00:00.0000, 5.981954892343760E+09, 1.087474380886021E+09, 8.047182306652315E+08,
2461043.500000000, A.D. 2026-Jan-03 00:00:00.0000, 5.981621304373612E+09, 1.090334345314007E+09, 8.041248780396576E+08,
2461050.500000000, A.D. 2026-Jan-10 00:00:00.0000, 5.981286473566745E+09, 1.093194012463583E+09, 8.035313559964936E+08,
2461057.500000000, A.D. 2026-Jan-17 00:00:00.0000, 5.980950399148227E+09, 1.096053381853137E+09, 8.029376648135401E+08,
2461064.500000000, A.D. 2026-Jan-24 00:00:00.0000, 5.980613080383086E+09, 1.098912452664788E+09, 8.023438047528365E+08,
2461071.500000000, A.D. 2026-Jan-31 00:00:00.0000, 5.980274516553181E+09, 1.101771223696086E+09, 8.017497760579830E+08,
2461078.500000000, A.D. 2026-Feb-07 00:00:00.0000, 5.979934706984727E+09, 1.104629693176552E+09, 8.011555789351395E+08,
2461085.500000000, A.D. 2026-Feb-14 00:00:00.0000, 5.979593651379575E+09, 1.107487858434633E+09, 8.005612134933436E+08,
2461092.500000000, A.D. 2026-Feb-21 00:00:00.0000, 5.979251350837750E+09, 1.110345715992916E+09, 7.999666796558695E+08,
2461099.500000000, A.D. 2026-Feb-28 00:00:00.0000, 5.978907808486442E+09, 1.113203263245660E+09, 7.993719772364775E+08,
2461106.500000000, A.D. 2026-Mar-07 00:00:00.0000, 5.978563027656898E+09, 1.116060499769060E+09, 7.987771062100923E+08,
2461113.500000000, A.D. 2026-Mar-14 00:00:00.0000, 5.978217010384919E+09, 1.118917425931638E+09, 7.981820667327663E+08,
2461120.500000000, A.D. 2026-Mar-21 00:00:00.0000, 5.977869758017841E+09, 1.121774041702823E+09, 7.975868589843442E+08,
2461127.500000000, A.D. 2026-Mar-28 00:00:00.0000, 5.977521271918614E+09, 1.124630346688418E+09, 7.969914831023102E+08,
2461134.500000000, A.D. 2026-Apr-04 00:00:00.0000, 5.977171553663248E+09, 1.127486340427283E+09, 7.963959391834309E+08,
2461141.500000000, A.D. 2026-Apr-11 00:00:00.0000, 5.976820605005552E+09, 1.130342022589300E+09, 7.958002272988486E+08,
2461148.500000000, A.D. 2026-Apr-18 00:00:00.0000, 5.976468427768581E+09, 1.133197393067890E+09, 7.952043475076522E+08,
2461155.500000000, A.D. 2026-Apr-25 00:00:00.0000, 5.976115023708844E+09, 1.136052451981778E+09, 7.946082998661406E+08,
2461162.500000000, A.D. 2026-May-02 00:00:00.0000, 5.975760394384291E+09, 1.138907199556384E+09, 7.940120844277277E+08,
2461169.500000000, A.D. 2026-May-09 00:00:00.0000, 5.975404541151089E+09, 1.141761635818620E+09, 7.934157012168159E+08,
2461176.500000000, A.D. 2026-May-16 00:00:00.0000, 5.975047465667481E+09, 1.144615760243452E+09, 7.928191501534042E+08,
2461183.500000000, A.D. 2026-May-23 00:00:00.0000, 5.974689170956877E+09, 1.147469572374638E+09, 7.922224310073031E+08,
2461190.500000000, A.D. 2026-May-30 00:00:00.0000, 5.974329660951888E+09, 1.150323073739236E+09, 7.916255435987051E+08,
2461197.500000000, A.D. 2026-Jun-06 00:00:00.0000, 5.973968938202183E+09, 1.153176267782346E+09, 7.910284880066273E+08,
2461204.500000000, A.D. 2026-Jun-13 00:00:00.0000, 5.973607003412075E+09, 1.156029158021031E+09, 7.904312644651046E+08,
2461211.500000000, A.D. 2026-Jun-20 00:00:00.0000, 5.973243856306931E+09, 1.158881747343597E+09, 7.898338732320282E+08,
2461218.500000000, A.D. 2026-Jun-27 00:00:00.0000, 5.972879496129961E+09, 1.161734038114363E+09, 7.892363145583704E+08,
2461225.500000000, A.D. 2026-Jul-04 00:00:00.0000, 5.972513921769308E+09, 1.164586032309099E+09, 7.886385886942077E+08,
2461232.500000000, A.D. 2026-Jul-11 00:00:00.0000, 5.972147131769375E+09, 1.167437731549245E+09, 7.880406958971928E+08,
2461239.500000000, A.D. 2026-Jul-18 00:00:00.0000, 5.971779124319049E+09, 1.170289137060724E+09, 7.874426364368145E+08,
2461246.500000000, A.D. 2026-Jul-25 00:00:00.0000, 5.971409897241281E+09, 1.173140249560134E+09, 7.868444105921922E+08,
2461253.500000000, A.D. 2026-Aug-01 00:00:00.0000, 5.971039448032064E+09, 1.175991069020255E+09, 7.862460186348704E+08,
2461260.500000000, A.D. 2026-Aug-08 00:00:00.0000, 5.970667774163689E+09, 1.178841594279092E+09, 7.856474607738261E+08,
2461267.500000000, A.D. 2026-Aug-15 00:00:00.0000, 5.970294874067189E+09, 1.181691822942955E+09, 7.850487370613308E+08,
2461274.500000000, A.D. 2026-Aug-22 00:00:00.0000, 5.969920748032881E+09, 1.184541752805010E+09, 7.844498474292234E+08,
2461281.500000000, A.D. 2026-Aug-29 00:00:00.0000, 5.969545396739735E+09, 1.187391383406752E+09, 7.838507919533322E+08,
2461288.500000000, A.D. 2026-Sep-05 00:00:00.0000, 5.969168819547151E+09, 1.190240714874400E+09, 7.832515709159636E+08,
2461295.500000000, A.D. 2026-Sep-12 00:00:00.0000, 5.968791015003915E+09, 1.193089746526032E+09, 7.826521846452684E+08,
2461302.500000000, A.D. 2026-Sep-19 00:00:00.0000, 5.968411981700558E+09, 1.195938476793620E+09, 7.820526334295554E+08,
2461309.500000000, A.D. 2026-Sep-26 00:00:00.0000, 5.968031718606359E+09, 1.198786903527075E+09, 7.814529175090840E+08,
2461316.500000000, A.D. 2026-Oct-03 00:00:00.0000, 5.967650225139608E+09, 1.201635024229621E+09, 7.808530370857446E+08,
$$EOE